IRIDIUM 57              
1 25273U 98019B   24274.90343344  .00001428  00000+0  49083-3 0  9996
2 25273  86.3915 253.8110 0002323  89.9930 270.1533 14.35430518387587
IRIDIUM 63              
1 25286U 98021B   24274.81571349  .00001601  00000+0  54424-3 0  9999
2 25286  86.4058 190.8100 0002451  79.3386 280.8087 14.36038127386615
IRIDIUM 69              
1 25319U 98026A   24275.19791173  .00002634  00000+0  82519-3 0  9995
2 25319  86.4037 204.6983 0003840 119.2758 240.8826 14.40316082386017
IRIDIUM 71              
1 25320U 98026B   24274.82804285  .00001899  00000+0  58975-3 0  9996
2 25320  86.4042 199.5998 0001613 143.1861 216.9449 14.40607628386249
IRIDIUM 73              
1 25344U 98032C   24275.17822975  .00002015  00000+0  50539-3 0  9993
2 25344  86.4465 156.7602 0002632  95.5799 264.5706 14.50932993393298
